SXM-9                   
1 62259U 24234A   26158.11483690 -.00000191  00000+0  00000+0 0  9993
2 62259   0.0153 323.8392 0004717 351.9074 255.9673  1.00271393  5472
TJS-12                  
1 62374U 24246A   26158.18378067 -.00000217  00000+0  00000+0 0  9991
2 62374   0.6934 298.1509 0002271  88.1594  82.0009  1.00272972  5461
NUVIEW ALPHA            
1 62455U 24252B   26158.17891777 -.00000201  00000+0  00000+0 0  9998
2 62455   0.0548  31.1974 0001021  26.0917 179.6309  1.00272452  3725
AGILA                   
1 62456U 24252C   26158.16177412 -.00000167  00000+0  00000+0 0  9992
2 62456   0.0540 135.0889 0000960 321.5577   9.3138  1.00272255  5062
NUVIEW BRAVO            
1 62457U 24252D   26158.17891777 -.00000201  00000+0  00000+0 0  9990
2 62457   0.0684 146.2389 0001769 332.2486 118.4038  1.00271916  3698
THURAYA-4               
1 62483U 25001A   26158.21176333  .00000153  00000+0  00000+0 0  9996
2 62483   0.0220  59.3448 0000089  42.0009 274.8210  1.00272883  4070
SHIJIAN-25 (SJ-25)      
1 62485U 25002A   26157.73433983 -.00000336  00000+0  00000+0 0  9996
2 62485   5.0875  61.2261 0051760 172.9258  52.6784  1.00277355  5257
TJS-14                  
1 62804U 25017A   26158.20664998  .00000129  00000+0  00000+0 0  9991
2 62804   0.8061 294.8874 0000657 276.1774 137.3072  1.00270857  5177
SPAINSAT NG I           
1 62852U 25021A   26158.20872999  .00000166  00000+0  00000+0 0  9992
2 62852   0.0053 334.8560 0000106 130.8005 254.1150  1.00270587  3883
QZS-6 (MICHIBIKI-6)     
1 62876U 25023A   26158.14964693 -.00000220  00000+0  00000+0 0  9998
2 62876   0.0270  46.5126 0002044  37.0175 316.3924  1.00274396  4843
ZHONGXING-10R           
1 63075U 25036A   26158.15392259 -.00000338  00000+0  00000+0 0  9998
2 63075   0.0460 251.4784 0003348 250.0337 280.0027  1.00270588  4859
TJS-15                  
1 63157U 25045A   26157.74059829 -.00000251  00000+0  00000+0 0  9990
2 63157   0.2779  85.3886 0005451 299.0666 231.6960  1.00268742  4652
TIANLIAN 2-04           
1 63361U 25062A   26157.98457743 -.00000123  00000+0  00000+0 0  9997
2 63361   4.4019 274.5852 0031438  10.6453  44.6735  1.00270540  4507
TJS-16                  
1 63397U 25064A   26157.78158219 -.00000091  00000+0  00000+0 0  9996
2 63397   1.0705  81.5166 0003657 293.1533 322.4972  1.00272320  4287
TJS-17                  
1 63524U 25073A   26157.78177983 -.00000056  00000+0  00000+0 0  9998
2 63524   1.0363  82.7836 0002430 301.0573 317.3124  1.00272365  4187
TIANLIAN 2-05           
1 63662U 25084A   26158.06446818  .00000136  00000+0  00000+0 0  9999
2 63662   4.4779 279.9503 0003512 145.3561 233.7856  1.00271781  4282
TJS-19                  
1 63924U 25097A   26157.78188081 -.00000265  00000+0  00000+0 0  9991
2 63924   3.3046 317.2592 0001981 233.5546 127.1483  1.00270006  4037
CHINASAT 3B             
1 64062U 25106A   26158.26188323 -.00000030  00000+0  00000+0 0  9999
2 64062   0.0274 107.1622 0003514 350.2603  59.8468  1.00272145  3964
SXM-10                  
1 64290U 25122A   26158.03745573 -.00000003  00000+0  00000+0 0  9991
2 64290   0.0183  20.3491 0001732 353.7473 138.6676  1.00271082  3583
COSMOS 2589             
1 64467U 25131A   26157.74195742 -.00000277  00000+0  00000+0 0  9994
2 64467   0.0451  69.4424 0001278  80.1765 110.6210  1.00270705  3458
CHINASAT 9C             
1 64470U 25132A   26158.14990693 -.00000234  00000+0  00000+0 0  9995
2 64470   0.0297 261.0202 0002890 175.9271 324.7901  1.00272937  4040
MTG-S1                  
1 64723U 25143A   26158.20231662 -.00000018  00000+0  00000+0 0  9999
2 64723   0.6122 336.6883 0001085  32.8456 315.4337  1.00271642  3310
DROR 1                  
1 64784U 25148A   26158.20222995 -.00000020  00000+0  00000+0 0  9993
2 64784   0.0096 345.5843 0002917  45.8304 292.9914  1.00271730  3191
SHIYAN-29               
1 65486U 25196A   26157.08094559 -.00000259  00000+0  00000+0 0  9998
2 65486  28.8092  18.6769 0010791 170.7480 188.4746  1.00257909  2768
NUSANTARA LIMA (NUSANT*)
1 65588U 25205A   26158.22528340 -.00000343  00000+0  00000+0 0  9993
2 65588   0.0345 144.7000 0000426 314.1410 350.7443  1.00270424  2613
TJS-20                  
1 66142U 25238A   26158.00124426  .00000035  00000+0  00000+0 0  9996
2 66142   5.4932 299.5898 0004785 155.9732 222.6794  1.00272551  2232
CMS-03 (GSAT-7R)        
1 66311U 25249B   26158.07504156 -.00000063  00000+0  00000+0 0  9997
2 66311   0.0285 260.4907 0001872 174.4424 281.5670  1.00271495  2242
VIASAT-3 F2             
1 66454U 25261A   26158.22405994 -.00000219  00000+0  00000+0 0  9999
2 66454   0.0479 143.2030 0000154 323.0837 151.0115  1.00272182  2690
SHIJIAN-28 (SJ-28)      
1 66549U 25277A   26158.22597674 -.00000347  00000+0  00000+0 0  9990
2 66549   4.5651 272.2919 0000445 356.6249 184.9599  1.00268901  2052
TJS-22                  
1 66990U 25290A   26157.90321742  .00000007  00000+0  00000+0 0  9992
2 66990   1.5530 286.4371 0001997 333.2200  27.2587  1.00271915  1925
TJS-23                  
1 67226U 25306A   26157.63092086  .00000027  00000+0  00000+0 0  9991
2 67226   5.6115 297.5457 0005070 164.5839 195.5214  1.00272816  1780
FENGYUN 4C              
1 67246U 25312A   26158.06433684 -.00000309  00000+0  00000+0 0  9995
2 67246   0.0323 126.8404 0000522  43.6469 241.1521  1.00271948  1673
