OBJECT_NAME,OBJECT_ID,EPOCH,MEAN_MOTION,ECCENTRICITY,INCLINATION,RA_OF_ASC_NODE,ARG_OF_PERICENTER,MEAN_ANOMALY,EPHEMERIS_TYPE,CLASSIFICATION_TYPE,NORAD_CAT_ID,ELEMENT_SET_NO,REV_AT_EPOCH,BSTAR,MEAN_MOTION_DOT,MEAN_MOTION_DDOT
SXM-9,2024-234A,2026-06-07T02:45:21.908160,1.00271393,.0004717,0.0153,323.8392,351.9074,255.9673,0,U,62259,999,547,0,-.191E-5,0
TJS-12,2024-246A,2026-06-07T04:24:38.649888,1.00272972,.00022717,0.6934,298.1509,88.1594,82.0009,0,U,62374,999,546,0,-.217E-5,0
NUVIEW ALPHA,2024-252B,2026-06-07T04:17:38.495328,1.00272452,.00010217,0.0548,31.1974,26.0917,179.6309,0,U,62455,999,372,0,-.201E-5,0
AGILA,2024-252C,2026-06-07T03:52:57.283968,1.00272255,.00009604,0.0540,135.0889,321.5577,9.3138,0,U,62456,999,506,0,-.167E-5,0
NUVIEW BRAVO,2024-252D,2026-06-07T04:17:38.495328,1.00271916,.00017698,0.0684,146.2389,332.2486,118.4038,0,U,62457,999,369,0,-.201E-5,0
THURAYA-4,2025-001A,2026-06-07T05:04:56.351712,1.00272883,.00000896,0.0220,59.3448,42.0009,274.8210,0,U,62483,999,407,0,.153E-5,0
SHIJIAN-25 (SJ-25),2025-002A,2026-06-06T17:37:26.961312,1.00277355,.005176,5.0875,61.2261,172.9258,52.6784,0,U,62485,999,525,0,-.336E-5,0
TJS-14,2025-017A,2026-06-07T04:57:34.558272,1.00270857,.00006572,0.8061,294.8874,276.1774,137.3072,0,U,62804,999,517,0,.129E-5,0
SPAINSAT NG I,2025-021A,2026-06-07T05:00:34.271136,1.00270587,.00001067,0.0053,334.8560,130.8005,254.1150,0,U,62852,999,388,0,.166E-5,0
QZS-6 (MICHIBIKI-6),2025-023A,2026-06-07T03:35:29.494752,1.00274396,.0002044,0.0270,46.5126,37.0175,316.3924,0,U,62876,999,484,0,-.22E-5,0
ZHONGXING-10R,2025-036A,2026-06-07T03:41:38.911776,1.00270588,.00033484,0.0460,251.4784,250.0337,280.0027,0,U,63075,999,485,0,-.338E-5,0
TJS-15,2025-045A,2026-06-06T17:46:27.692256,1.00268742,.0005451,0.2779,85.3886,299.0666,231.6960,0,U,63157,999,465,0,-.251E-5,0
TIANLIAN 2-04,2025-062A,2026-06-06T23:37:47.489952,1.00270540,.00314388,4.4019,274.5852,10.6453,44.6735,0,U,63361,999,450,0,-.123E-5,0
TJS-16,2025-064A,2026-06-06T18:45:28.701216,1.00272320,.0003657,1.0705,81.5166,293.1533,322.4972,0,U,63397,999,428,0,-.91E-6,0
TJS-17,2025-073A,2026-06-06T18:45:45.777312,1.00272365,.000243,1.0363,82.7836,301.0573,317.3124,0,U,63524,999,418,0,-.56E-6,0
TIANLIAN 2-05,2025-084A,2026-06-07T01:32:50.050752,1.00271781,.0003512,4.4779,279.9503,145.3561,233.7856,0,U,63662,999,428,0,.136E-5,0
TJS-19,2025-097A,2026-06-06T18:45:54.501984,1.00270006,.0001981,3.3046,317.2592,233.5546,127.1483,0,U,63924,999,403,0,-.265E-5,0
CHINASAT 3B,2025-106A,2026-06-07T06:17:06.711072,1.00272145,.0003514,0.0274,107.1622,350.2603,59.8468,0,U,64062,999,396,0,-.3E-6,0
SXM-10,2025-122A,2026-06-07T00:53:56.175072,1.00271082,.00017323,0.0183,20.3491,353.7473,138.6676,0,U,64290,999,358,0,-.3E-7,0
COSMOS 2589,2025-131A,2026-06-06T17:48:25.121088,1.00270705,.0001278,0.0451,69.4424,80.1765,110.6210,0,U,64467,999,345,0,-.277E-5,0
CHINASAT 9C,2025-132A,2026-06-07T03:35:51.958752,1.00272937,.00028902,0.0297,261.0202,175.9271,324.7901,0,U,64470,999,404,0,-.234E-5,0
MTG-S1,2025-143A,2026-06-07T04:51:20.155968,1.00271642,.00010853,0.6122,336.6883,32.8456,315.4337,0,U,64723,999,331,0,-.18E-6,0
DROR 1,2025-148A,2026-06-07T04:51:12.667680,1.00271730,.0002917,0.0096,345.5843,45.8304,292.9914,0,U,64784,999,319,0,-.2E-6,0
SHIYAN-29,2025-196A,2026-06-06T01:56:33.698976,1.00257909,.0010791,28.8092,18.6769,170.7480,188.4746,0,U,65486,999,276,0,-.259E-5,0
NUSANTARA LIMA (NUSANTARA 5),2025-205A,2026-06-07T05:24:24.485760,1.00270424,.00004267,0.0345,144.7000,314.1410,350.7443,0,U,65588,999,261,0,-.343E-5,0
TJS-20,2025-238A,2026-06-07T00:01:47.504928,1.00272551,.00047854,5.4932,299.5898,155.9732,222.6794,0,U,66142,999,223,0,.35E-6,0
CMS-03 (GSAT-7R),2025-249B,2026-06-07T01:48:03.591648,1.00271495,.0001872,0.0285,260.4907,174.4424,281.5670,0,U,66311,999,224,0,-.63E-6,0
VIASAT-3 F2,2025-261A,2026-06-07T05:22:38.778816,1.00272182,.00001542,0.0479,143.2030,323.0837,151.0115,0,U,66454,999,269,0,-.219E-5,0
SHIJIAN-28 (SJ-28),2025-277A,2026-06-07T05:25:24.390336,1.00268901,.00004454,4.5651,272.2919,356.6249,184.9599,0,U,66549,999,205,0,-.347E-5,0
TJS-22,2025-290A,2026-06-06T21:40:37.985088,1.00271915,.00019969,1.5530,286.4371,333.2200,27.2587,0,U,66990,999,192,0,.7E-7,0
TJS-23,2025-306A,2026-06-06T15:08:31.562304,1.00272816,.00050703,5.6115,297.5457,164.5839,195.5214,0,U,67226,999,178,0,.27E-6,0
FENGYUN 4C,2025-312A,2026-06-07T01:32:38.702976,1.00271948,.00005221,0.0323,126.8404,43.6469,241.1521,0,U,67246,999,167,0,-.309E-5,0
